<?xml version="1.0" encoding="UTF-8"?>
<ndm xmlns:xsi="http://www.w3.org/2001/XMLSchema-instance" xsi:noNamespaceSchemaLocation="https://sanaregistry.org/r/ndmxml_unqualified/ndmxml-2.0.0-master-2.0.xsd">
<omm id="CCSDS_OMM_VERS" version="2.0">
<header><CREATION_DATE/><ORIGINATOR/></header><body><segment><metadata><OBJECT_NAME>ONEWEB-0415</OBJECT_NAME><OBJECT_ID>2022-012C</OBJECT_ID><CENTER_NAME>EARTH</CENTER_NAME><REF_FRAME>TEME</REF_FRAME><TIME_SYSTEM>UTC</TIME_SYSTEM><MEAN_ELEMENT_THEORY>SGP4</MEAN_ELEMENT_THEORY></metadata><data><meanElements><EPOCH>2024-11-13T01:57:51.064128</EPOCH><MEAN_MOTION>13.10379087</MEAN_MOTION><ECCENTRICITY>.0001208</ECCENTRICITY><INCLINATION>87.8888</INCLINATION><RA_OF_ASC_NODE>151.9869</RA_OF_ASC_NODE><ARG_OF_PERICENTER>76.0005</ARG_OF_PERICENTER><MEAN_ANOMALY>284.1257</MEAN_ANOMALY></meanElements><tleParameters><EPHEMERIS_TYPE>0</EPHEMERIS_TYPE><CLASSIFICATION_TYPE>U</CLASSIFICATION_TYPE><NORAD_CAT_ID>51624</NORAD_CAT_ID><ELEMENT_SET_NO>999</ELEMENT_SET_NO><REV_AT_EPOCH>13446</REV_AT_EPOCH><BSTAR>.1732E-2</BSTAR><MEAN_MOTION_DOT>.617E-5</MEAN_MOTION_DOT><MEAN_MOTION_DDOT>0</MEAN_MOTION_DDOT></tleParameters></data></segment></body></omm>
<omm id="CCSDS_OMM_VERS" version="2.0">
<header><CREATION_DATE/><ORIGINATOR/></header><body><segment><metadata><OBJECT_NAME>ONEWEB-0416</OBJECT_NAME><OBJECT_ID>2022-012D</OBJECT_ID><CENTER_NAME>EARTH</CENTER_NAME><REF_FRAME>TEME</REF_FRAME><TIME_SYSTEM>UTC</TIME_SYSTEM><MEAN_ELEMENT_THEORY>SGP4</MEAN_ELEMENT_THEORY></metadata><data><meanElements><EPOCH>2024-11-13T02:14:33.817344</EPOCH><MEAN_MOTION>13.10369973</MEAN_MOTION><ECCENTRICITY>.0001437</ECCENTRICITY><INCLINATION>87.8894</INCLINATION><RA_OF_ASC_NODE>151.9882</RA_OF_ASC_NODE><ARG_OF_PERICENTER>85.2242</ARG_OF_PERICENTER><MEAN_ANOMALY>274.9049</MEAN_ANOMALY></meanElements><tleParameters><EPHEMERIS_TYPE>0</EPHEMERIS_TYPE><CLASSIFICATION_TYPE>U</CLASSIFICATION_TYPE><NORAD_CAT_ID>51625</NORAD_CAT_ID><ELEMENT_SET_NO>999</ELEMENT_SET_NO><REV_AT_EPOCH>13451</REV_AT_EPOCH><BSTAR>.21097E-3</BSTAR><MEAN_MOTION_DOT>.86E-6</MEAN_MOTION_DOT><MEAN_MOTION_DDOT>0</MEAN_MOTION_DDOT></tleParameters></data></segment></body></omm>
<omm id="CCSDS_OMM_VERS" version="2.0">
<header><CREATION_DATE/><ORIGINATOR/></header><body><segment><metadata><OBJECT_NAME>ONEWEB-0422</OBJECT_NAME><OBJECT_ID>2022-012E</OBJECT_ID><CENTER_NAME>EARTH</CENTER_NAME><REF_FRAME>TEME</REF_FRAME><TIME_SYSTEM>UTC</TIME_SYSTEM><MEAN_ELEMENT_THEORY>SGP4</MEAN_ELEMENT_THEORY></metadata><data><meanElements><EPOCH>2024-11-13T11:13:19.139232</EPOCH><MEAN_MOTION>13.17651463</MEAN_MOTION><ECCENTRICITY>.000213</ECCENTRICITY><INCLINATION>87.9074</INCLINATION><RA_OF_ASC_NODE>121.5350</RA_OF_ASC_NODE><ARG_OF_PERICENTER>74.1347</ARG_OF_PERICENTER><MEAN_ANOMALY>286.0020</MEAN_ANOMALY></meanElements><tleParameters><EPHEMERIS_TYPE>0</EPHEMERIS_TYPE><CLASSIFICATION_TYPE>U</CLASSIFICATION_TYPE><NORAD_CAT_ID>51626</NORAD_CAT_ID><ELEMENT_SET_NO>999</ELEMENT_SET_NO><REV_AT_EPOCH>13861</REV_AT_EPOCH><BSTAR>.21586E-3</BSTAR><MEAN_MOTION_DOT>.97E-6</MEAN_MOTION_DOT><MEAN_MOTION_DDOT>0</MEAN_MOTION_DDOT></tleParameters></data></segment></body></omm>
<omm id="CCSDS_OMM_VERS" version="2.0">
<header><CREATION_DATE/><ORIGINATOR/></header><body><segment><metadata><OBJECT_NAME>ONEWEB-0423</OBJECT_NAME><OBJECT_ID>2022-012F</OBJECT_ID><CENTER_NAME>EARTH</CENTER_NAME><REF_FRAME>TEME</REF_FRAME><TIME_SYSTEM>UTC</TIME_SYSTEM><MEAN_ELEMENT_THEORY>SGP4</MEAN_ELEMENT_THEORY></metadata><data><meanElements><EPOCH>2024-11-13T03:46:12.482688</EPOCH><MEAN_MOTION>13.17648332</MEAN_MOTION><ECCENTRICITY>.0001674</ECCENTRICITY><INCLINATION>87.9073</INCLINATION><RA_OF_ASC_NODE>121.5999</RA_OF_ASC_NODE><ARG_OF_PERICENTER>92.3117</ARG_OF_PERICENTER><MEAN_ANOMALY>267.8206</MEAN_ANOMALY></meanElements><tleParameters><EPHEMERIS_TYPE>0</EPHEMERIS_TYPE><CLASSIFICATION_TYPE>U</CLASSIFICATION_TYPE><NORAD_CAT_ID>51627</NORAD_CAT_ID><ELEMENT_SET_NO>999</ELEMENT_SET_NO><REV_AT_EPOCH>13847</REV_AT_EPOCH><BSTAR>.22127E-3</BSTAR><MEAN_MOTION_DOT>.99E-6</MEAN_MOTION_DOT><MEAN_MOTION_DDOT>0</MEAN_MOTION_DDOT></tleParameters></data></segment></body></omm>
<omm id="CCSDS_OMM_VERS" version="2.0">
<header><CREATION_DATE/><ORIGINATOR/></header><body><segment><metadata><OBJECT_NAME>ONEWEB-0425</OBJECT_NAME><OBJECT_ID>2022-012G</OBJECT_ID><CENTER_NAME>EARTH</CENTER_NAME><REF_FRAME>TEME</REF_FRAME><TIME_SYSTEM>UTC</TIME_SYSTEM><MEAN_ELEMENT_THEORY>SGP4</MEAN_ELEMENT_THEORY></metadata><data><meanElements><EPOCH>2024-11-12T22:49:01.864992</EPOCH><MEAN_MOTION>13.10368120</MEAN_MOTION><ECCENTRICITY>.0001638</ECCENTRICITY><INCLINATION>87.8892</INCLINATION><RA_OF_ASC_NODE>151.9951</RA_OF_ASC_NODE><ARG_OF_PERICENTER>98.3734</ARG_OF_PERICENTER><MEAN_ANOMALY>261.7579</MEAN_ANOMALY></meanElements><tleParameters><EPHEMERIS_TYPE>0</EPHEMERIS_TYPE><CLASSIFICATION_TYPE>U</CLASSIFICATION_TYPE><NORAD_CAT_ID>51628</NORAD_CAT_ID><ELEMENT_SET_NO>999</ELEMENT_SET_NO><REV_AT_EPOCH>13320</REV_AT_EPOCH><BSTAR>-.8358E-4</BSTAR><MEAN_MOTION_DOT>-.17E-6</MEAN_MOTION_DOT><MEAN_MOTION_DDOT>0</MEAN_MOTION_DDOT></tleParameters></data></segment></body></omm>
<omm id="CCSDS_OMM_VERS" version="2.0">
<header><CREATION_DATE/><ORIGINATOR/></header><body><segment><metadata><OBJECT_NAME>ONEWEB-0428</OBJECT_NAME><OBJECT_ID>2022-012H</OBJECT_ID><CENTER_NAME>EARTH</CENTER_NAME><REF_FRAME>TEME</REF_FRAME><TIME_SYSTEM>UTC</TIME_SYSTEM><MEAN_ELEMENT_THEORY>SGP4</MEAN_ELEMENT_THEORY></metadata><data><meanElements><EPOCH>2024-11-13T02:00:14.787072</EPOCH><MEAN_MOTION>13.10374195</MEAN_MOTION><ECCENTRICITY>.0001541</ECCENTRICITY><INCLINATION>87.8894</INCLINATION><RA_OF_ASC_NODE>151.9863</RA_OF_ASC_NODE><ARG_OF_PERICENTER>75.5803</ARG_OF_PERICENTER><MEAN_ANOMALY>284.5495</MEAN_ANOMALY></meanElements><tleParameters><EPHEMERIS_TYPE>0</EPHEMERIS_TYPE><CLASSIFICATION_TYPE>U</CLASSIFICATION_TYPE><NORAD_CAT_ID>51629</NORAD_CAT_ID><ELEMENT_SET_NO>999</ELEMENT_SET_NO><REV_AT_EPOCH>13446</REV_AT_EPOCH><BSTAR>.15342E-2</BSTAR><MEAN_MOTION_DOT>.548E-5</MEAN_MOTION_DOT><MEAN_MOTION_DDOT>0</MEAN_MOTION_DDOT></tleParameters></data></segment></body></omm>
<omm id="CCSDS_OMM_VERS" version="2.0">
<header><CREATION_DATE/><ORIGINATOR/></header><body><segment><metadata><OBJECT_NAME>ONEWEB-0431</OBJECT_NAME><OBJECT_ID>2022-012J</OBJECT_ID><CENTER_NAME>EARTH</CENTER_NAME><REF_FRAME>TEME</REF_FRAME><TIME_SYSTEM>UTC</TIME_SYSTEM><MEAN_ELEMENT_THEORY>SGP4</MEAN_ELEMENT_THEORY></metadata><data><meanElements><EPOCH>2024-11-13T01:16:58.769472</EPOCH><MEAN_MOTION>13.10378329</MEAN_MOTION><ECCENTRICITY>.0001408</ECCENTRICITY><INCLINATION>87.8893</INCLINATION><RA_OF_ASC_NODE>151.9796</RA_OF_ASC_NODE><ARG_OF_PERICENTER>57.7175</ARG_OF_PERICENTER><MEAN_ANOMALY>302.4089</MEAN_ANOMALY></meanElements><tleParameters><EPHEMERIS_TYPE>0</EPHEMERIS_TYPE><CLASSIFICATION_TYPE>U</CLASSIFICATION_TYPE><NORAD_CAT_ID>51630</NORAD_CAT_ID><ELEMENT_SET_NO>999</ELEMENT_SET_NO><REV_AT_EPOCH>13452</REV_AT_EPOCH><BSTAR>-.16252E-3</BSTAR><MEAN_MOTION_DOT>-.44E-6</MEAN_MOTION_DOT><MEAN_MOTION_DDOT>0</MEAN_MOTION_DDOT></tleParameters></data></segment></body></omm>
<omm id="CCSDS_OMM_VERS" version="2.0">
<header><CREATION_DATE/><ORIGINATOR/></header><body><segment><metadata><OBJECT_NAME>ONEWEB-0434</OBJECT_NAME><OBJECT_ID>2022-012K</OBJECT_ID><CENTER_NAME>EARTH</CENTER_NAME><REF_FRAME>TEME</REF_FRAME><TIME_SYSTEM>UTC</TIME_SYSTEM><MEAN_ELEMENT_THEORY>SGP4</MEAN_ELEMENT_THEORY></metadata><data><meanElements><EPOCH>2024-11-13T02:33:40.448160</EPOCH><MEAN_MOTION>13.10371245</MEAN_MOTION><ECCENTRICITY>.0001671</ECCENTRICITY><INCLINATION>87.8896</INCLINATION><RA_OF_ASC_NODE>151.9938</RA_OF_ASC_NODE><ARG_OF_PERICENTER>83.7875</ARG_OF_PERICENTER><MEAN_ANOMALY>276.3443</MEAN_ANOMALY></meanElements><tleParameters><EPHEMERIS_TYPE>0</EPHEMERIS_TYPE><CLASSIFICATION_TYPE>U</CLASSIFICATION_TYPE><NORAD_CAT_ID>51631</NORAD_CAT_ID><ELEMENT_SET_NO>999</ELEMENT_SET_NO><REV_AT_EPOCH>13451</REV_AT_EPOCH><BSTAR>-.14061E-2</BSTAR><MEAN_MOTION_DOT>-.478E-5</MEAN_MOTION_DOT><MEAN_MOTION_DDOT>0</MEAN_MOTION_DDOT></tleParameters></data></segment></body></omm>

</ndm>
