ONEWEB-0415             
1 51624U 22012C   24318.08184102  .00000617  00000+0  17320-2 0  9995
2 51624  87.8888 151.9869 0001208  76.0005 284.1257 13.10379087134461
ONEWEB-0416             
1 51625U 22012D   24318.09344696  .00000086  00000+0  21097-3 0  9990
2 51625  87.8894 151.9882 0001437  85.2242 274.9049 13.10369973134518
ONEWEB-0422             
1 51626U 22012E   24318.46758263  .00000097  00000+0  21586-3 0  9996
2 51626  87.9074 121.5350 0002130  74.1347 286.0020 13.17651463138610
ONEWEB-0423             
1 51627U 22012F   24318.15708892  .00000099  00000+0  22127-3 0  9990
2 51627  87.9073 121.5999 0001674  92.3117 267.8206 13.17648332138476
ONEWEB-0425             
1 51628U 22012G   24317.95071603 -.00000017  00000+0 -83580-4 0  9994
2 51628  87.8892 151.9951 0001638  98.3734 261.7579 13.10368120133200
ONEWEB-0428             
1 51629U 22012H   24318.08350448  .00000548  00000+0  15342-2 0  9993
2 51629  87.8894 151.9863 0001541  75.5803 284.5495 13.10374195134460
ONEWEB-0431             
1 51630U 22012J   24318.05345798 -.00000044  00000+0 -16252-3 0  9999
2 51630  87.8893 151.9796 0001408  57.7175 302.4089 13.10378329134521
ONEWEB-0434             
1 51631U 22012K   24318.10671815 -.00000478  00000+0 -14061-2 0  9994
2 51631  87.8896 151.9938 0001671  83.7875 276.3443 13.10371245134513
